[{"OBJECT_NAME":"STARLINK-31699","OBJECT_ID":"2024-074T","EPOCH":"2026-03-09T03:39:50.243040","MEAN_MOTION":15.27587018,"ECCENTRICITY":6.68e-5,"INCLINATION":43.0013,"RA_OF_ASC_NODE":346.4327,"ARG_OF_PERICENTER":316.005,"MEAN_ANOMALY":44.0749,"EPHEMERIS_TYPE":0,"CLASSIFICATION_TYPE":"U","NORAD_CAT_ID":59551,"ELEMENT_SET_NO":999,"REV_AT_EPOCH":10593,"BSTAR":-9.8611676e-5,"MEAN_MOTION_DOT":-2.975e-5,"MEAN_MOTION_DDOT":0},{"OBJECT_NAME":"OBJECT BC","OBJECT_ID":"2025-313BC","EPOCH":"2026-03-09T04:33:08.504064","MEAN_MOTION":15.29126358,"ECCENTRICITY":0.00084789,"INCLINATION":97.3985,"RA_OF_ASC_NODE":144.811,"ARG_OF_PERICENTER":328.9209,"MEAN_ANOMALY":31.1528,"EPHEMERIS_TYPE":0,"CLASSIFICATION_TYPE":"U","NORAD_CAT_ID":67298,"ELEMENT_SET_NO":999,"REV_AT_EPOCH":789,"BSTAR":0.0026410397,"MEAN_MOTION_DOT":0.00075331,"MEAN_MOTION_DDOT":0}]
