STARLINK-31699          
1 59551U 24074T   26068.15266485 -.00002975  00000+0 -98612-4 0  9995
2 59551  43.0013 346.4327 0000668 316.0050  44.0749 15.27587018105932
2025-313BC              
1 67298U 25313BC  26068.18968176  .00075331  00000+0  26410-2 0  9997
2 67298  97.3985 144.8110 0008478 328.9209  31.1528 15.29126358  7890
